[{"OBJECT_NAME":"STARLINK-5686","OBJECT_ID":"2023-015B","EPOCH":"2026-03-09T22:08:18.010752","MEAN_MOTION":15.03531284,"ECCENTRICITY":0.00011421,"INCLINATION":43.0018,"RA_OF_ASC_NODE":325.1936,"ARG_OF_PERICENTER":277.4913,"MEAN_ANOMALY":82.58,"EPHEMERIS_TYPE":0,"CLASSIFICATION_TYPE":"U","NORAD_CAT_ID":55450,"ELEMENT_SET_NO":999,"REV_AT_EPOCH":17172,"BSTAR":0.0081001838,"MEAN_MOTION_DOT":0.00113991,"MEAN_MOTION_DDOT":0},{"OBJECT_NAME":"CZ-4B DEB","OBJECT_ID":"1999-057KD","EPOCH":"2026-03-09T21:11:33.062784","MEAN_MOTION":14.92997204,"ECCENTRICITY":0.00562796,"INCLINATION":98.5504,"RA_OF_ASC_NODE":202.6828,"ARG_OF_PERICENTER":125.3801,"MEAN_ANOMALY":235.2692,"EPHEMERIS_TYPE":0,"CLASSIFICATION_TYPE":"U","NORAD_CAT_ID":26432,"ELEMENT_SET_NO":999,"REV_AT_EPOCH":35696,"BSTAR":0.0033240821,"MEAN_MOTION_DOT":0.00035726,"MEAN_MOTION_DDOT":0}]
